{"type": "FeatureCollection", "features": [{"type": "Feature", "id": 2009078434, "geometry": {"type": "Point", "coordinates": [-66.1351505, -17.3844187]}, "properties": {"id": 2009078434, "type": "toilets", "category": "toilets", "subcategory": "toilets", "osmType": "node", "amenity": "toilets", "fee": "yes", "access": "customers", "wheelchair": "no", "changing_table": "no"}}, {"type": "Feature", "id": 2282808618, "geometry": {"type": "Point", "coordinates": [-66.1536907, -17.374955]}, "properties": {"id": 2282808618, "type": "toilets", "category": "toilets", "subcategory": "toilets", "osmType": "node", "amenity": "toilets", "fee": "no", "access": "customers", "wheelchair": "yes", "operator": "Fundación Universitaria Simón Iturri Patiño", "toilets:disposal": "flush", "changing_table": "no"}}, {"type": "Feature", "id": 2389107059, "geometry": {"type": "Point", "coordinates": [-66.1417628, -17.3711513]}, "properties": {"id": 2389107059, "type": "toilets", "category": "toilets", "subcategory": "toilets", "osmType": "node", "amenity": "toilets", "fee": "no", "access": "private", "changing_table": "no"}}, {"type": "Feature", "id": 2389107060, "geometry": {"type": "Point", "coordinates": [-66.141643, -17.371198]}, "properties": {"id": 2389107060, "type": "toilets", "category": "toilets", "subcategory": "toilets", "osmType": "node", "amenity": "toilets", "fee": "no", "access": "private", "changing_table": "no"}}, {"type": "Feature", "id": 2389107105, "geometry": {"type": "Point", "coordinates": [-66.1421387, -17.3718588]}, "properties": {"id": 2389107105, "type": "toilets", "category": "toilets", "subcategory": "toilets", "osmType": "node", "amenity": "toilets", "fee": "no", "access": "private"}}, {"type": "Feature", "id": 2427293203, "geometry": {"type": "Point", "coordinates": [-66.1612115, -17.3887372]}, "properties": {"id": 2427293203, "type": "toilets", "category": "toilets", "subcategory": "toilets", "osmType": "node", "amenity": "toilets", "access": "private"}}, {"type": "Feature", "id": 2427293206, "geometry": {"type": "Point", "coordinates": [-66.1612735, -17.3887468]}, "properties": {"id": 2427293206, "type": "toilets", "category": "toilets", "subcategory": "toilets", "osmType": "node", "amenity": "toilets", "access": "private"}}, {"type": "Feature", "id": 2599277253, "geometry": {"type": "Point", "coordinates": [-66.1520657, -17.3986508]}, "properties": {"id": 2599277253, "type": "toilets", "category": "toilets", "subcategory": "toilets", "osmType": "node", "amenity": "toilets", "fee": "yes", "access": "yes", "toilets:disposal": "flush"}}, {"type": "Feature", "id": 2604131901, "geometry": {"type": "Point", "coordinates": [-66.1789054, -17.414447]}, "properties": {"id": 2604131901, "type": "toilets", "category": "toilets", "subcategory": "toilets", "osmType": "node", "amenity": "toilets", "fee": "no", "access": "yes", "toilets:disposal": "flush"}}, {"type": "Feature", "id": 2684641206, "geometry": {"type": "Point", "coordinates": [-66.1660415, -17.4000161]}, "properties": {"id": 2684641206, "type": "toilets", "category": "toilets", "subcategory": "toilets", "osmType": "node", "amenity": "toilets", "fee": "no", "access": "permissive", "wheelchair": "no", "toilets:disposal": "flush"}}, {"type": "Feature", "id": 3139140971, "geometry": {"type": "Point", "coordinates": [-66.2266032, -17.3302687]}, "properties": {"id": 3139140971, "type": "toilets", "category": "toilets", "subcategory": "toilets", "osmType": "node", "amenity": "toilets", "access": "customers"}}, {"type": "Feature", "id": 3297079410, "geometry": {"type": "Point", "coordinates": [-66.1664576, -17.3932074]}, "properties": {"id": 3297079410, "type": "toilets", "category": "toilets", "subcategory": "toilets", "osmType": "node", "amenity": "toilets", "fee": "yes", "access": "yes", "wheelchair": "no", "operator": "Gobierno Autónomo Municipal de Cochabamba", "changing_table": "no"}}, {"type": "Feature", "id": 3500252365, "geometry": {"type": "Point", "coordinates": [-66.1400563, -17.3355234]}, "properties": {"id": 3500252365, "type": "toilets", "category": "toilets", "subcategory": "toilets", "osmType": "node", "amenity": "toilets"}}, {"type": "Feature", "id": 3721583725, "geometry": {"type": "Point", "coordinates": [-66.1087012, -17.3757802]}, "properties": {"id": 3721583725, "type": "toilets", "category": "toilets", "subcategory": "toilets", "osmType": "node", "amenity": "toilets", "fee": "no", "access": "customers", "toilets:disposal": "flush"}}, {"type": "Feature", "id": 3879231487, "geometry": {"type": "Point", "coordinates": [-66.1641714, -17.3996122]}, "properties": {"id": 3879231487, "type": "toilets", "category": "toilets", "subcategory": "toilets", "osmType": "node", "amenity": "toilets", "fee": "no", "access": "customers", "wheelchair": "limited"}}, {"type": "Feature", "id": 4122939792, "geometry": {"type": "Point", "coordinates": [-66.1546401, -17.3945891]}, "properties": {"id": 4122939792, "type": "toilets", "category": "toilets", "subcategory": "toilets", "osmType": "node", "amenity": "toilets", "fee": "yes", "toilets:disposal": "flush"}}, {"type": "Feature", "id": 4238852979, "geometry": {"type": "Point", "coordinates": [-66.2182502, -17.3370862]}, "properties": {"id": 4238852979, "type": "toilets", "category": "toilets", "subcategory": "toilets", "osmType": "node", "amenity": "toilets", "fee": "yes", "wheelchair": "no"}}, {"type": "Feature", "id": 4415944953, "geometry": {"type": "Point", "coordinates": [-66.1797785, -17.3678788]}, "properties": {"id": 4415944953, "type": "toilets", "category": "toilets", "subcategory": "toilets", "osmType": "node", "amenity": "toilets", "wheelchair": "no", "changing_table": "no"}}, {"type": "Feature", "id": 4477790785, "geometry": {"type": "Point", "coordinates": [-66.1585777, -17.4097222]}, "properties": {"id": 4477790785, "type": "toilets", "category": "toilets", "subcategory": "toilets", "osmType": "node", "amenity": "toilets", "fee": "yes", "access": "yes", "operator": "Gobierno Autónomo Municipal de Cochabamba", "toilets:disposal": "flush", "changing_table": "no"}}, {"type": "Feature", "id": 4542419444, "geometry": {"type": "Point", "coordinates": [-66.1578202, -17.4022849]}, "properties": {"id": 4542419444, "type": "toilets", "category": "toilets", "subcategory": "toilets", "osmType": "node", "amenity": "toilets", "fee": "yes", "toilets:disposal": "flush"}}, {"type": "Feature", "id": 4542419446, "geometry": {"type": "Point", "coordinates": [-66.1577502, -17.4030198]}, "properties": {"id": 4542419446, "type": "toilets", "category": "toilets", "subcategory": "toilets", "osmType": "node", "amenity": "toilets", "fee": "yes", "access": "yes", "wheelchair": "designated", "toilets:disposal": "flush", "changing_table": "no"}}, {"type": "Feature", "id": 4574221814, "geometry": {"type": "Point", "coordinates": [-66.1710663, -17.3961812]}, "properties": {"id": 4574221814, "type": "toilets", "category": "toilets", "subcategory": "toilets", "osmType": "node", "amenity": "toilets", "fee": "no", "access": "customers", "wheelchair": "no", "toilets:disposal": "flush", "changing_table": "no"}}, {"type": "Feature", "id": 4689733882, "geometry": {"type": "Point", "coordinates": [-66.1604069, -17.3830846]}, "properties": {"id": 4689733882, "type": "toilets", "category": "toilets", "subcategory": "toilets", "osmType": "node", "amenity": "toilets", "access": "customers", "wheelchair": "limited", "toilets:disposal": "flush", "changing_table": "no"}}, {"type": "Feature", "id": 4780224963, "geometry": {"type": "Point", "coordinates": [-66.162529, -17.3968644]}, "properties": {"id": 4780224963, "type": "toilets", "category": "toilets", "subcategory": "toilets", "osmType": "node", "amenity": "toilets", "fee": "yes", "access": "yes"}}, {"type": "Feature", "id": 4874518554, "geometry": {"type": "Point", "coordinates": [-66.1785157, -17.4147027]}, "properties": {"id": 4874518554, "type": "toilets", "category": "toilets", "subcategory": "toilets", "osmType": "node", "amenity": "toilets"}}, {"type": "Feature", "id": 5125705659, "geometry": {"type": "Point", "coordinates": [-66.1458513, -17.3927726]}, "properties": {"id": 5125705659, "type": "toilets", "category": "toilets", "subcategory": "toilets", "osmType": "node", "amenity": "toilets", "fee": "yes", "wheelchair": "no", "operator": "Universidad Mayor de San Simón", "toilets:disposal": "flush", "changing_table": "no"}}, {"type": "Feature", "id": 5125705660, "geometry": {"type": "Point", "coordinates": [-66.1458495, -17.3927285]}, "properties": {"id": 5125705660, "type": "toilets", "category": "toilets", "subcategory": "toilets", "osmType": "node", "amenity": "toilets", "fee": "yes", "wheelchair": "no", "operator": "Universidad Mayor de San Simón", "toilets:disposal": "flush", "changing_table": "no"}}, {"type": "Feature", "id": 5175860761, "geometry": {"type": "Point", "coordinates": [-66.1079465, -17.3702521]}, "properties": {"id": 5175860761, "type": "toilets", "category": "toilets", "subcategory": "toilets", "osmType": "node", "amenity": "toilets", "access": "private", "operator": "AKDC"}}, {"type": "Feature", "id": 5294971050, "geometry": {"type": "Point", "coordinates": [-66.1464783, -17.3949778]}, "properties": {"id": 5294971050, "type": "toilets", "category": "toilets", "subcategory": "toilets", "osmType": "node", "amenity": "toilets", "fee": "yes"}}, {"type": "Feature", "id": 5309804728, "geometry": {"type": "Point", "coordinates": [-66.1490238, -17.3925481]}, "properties": {"id": 5309804728, "type": "toilets", "category": "toilets", "subcategory": "toilets", "osmType": "node", "amenity": "toilets", "fee": "no", "access": "customers"}}, {"type": "Feature", "id": 5309804732, "geometry": {"type": "Point", "coordinates": [-66.1490118, -17.3927621]}, "properties": {"id": 5309804732, "type": "toilets", "category": "toilets", "subcategory": "toilets", "osmType": "node", "amenity": "toilets", "fee": "no", "access": "customers", "changing_table": "no"}}, {"type": "Feature", "id": 5324989558, "geometry": {"type": "Point", "coordinates": [-66.1530084, -17.4036819]}, "properties": {"id": 5324989558, "type": "toilets", "category": "toilets", "subcategory": "toilets", "osmType": "node", "amenity": "toilets"}}, {"type": "Feature", "id": 5501989221, "geometry": {"type": "Point", "coordinates": [-66.2089437, -17.3830355]}, "properties": {"id": 5501989221, "type": "toilets", "category": "toilets", "subcategory": "toilets", "osmType": "node", "amenity": "toilets", "operator": "33D"}}, {"type": "Feature", "id": 5648141629, "geometry": {"type": "Point", "coordinates": [-66.1592281, -17.3913626]}, "properties": {"id": 5648141629, "type": "toilets", "category": "toilets", "subcategory": "toilets", "osmType": "node", "amenity": "toilets", "fee": "yes", "access": "yes", "wheelchair": "no", "opening_hours": "Mo-Su 08:00-21:00", "toilets:disposal": "flush", "changing_table": "no"}}, {"type": "Feature", "id": 5648188722, "geometry": {"type": "Point", "coordinates": [-66.1588721, -17.3843189]}, "properties": {"id": 5648188722, "type": "toilets", "category": "toilets", "subcategory": "toilets", "osmType": "node", "amenity": "toilets", "fee": "no", "wheelchair": "yes", "opening_hours": "Mo-Su 09:00-21:00"}}, {"type": "Feature", "id": 5679774125, "geometry": {"type": "Point", "coordinates": [-66.1607189, -17.4008685]}, "properties": {"id": 5679774125, "type": "toilets", "category": "toilets", "subcategory": "toilets", "osmType": "node", "amenity": "toilets", "fee": "yes", "access": "customers", "wheelchair": "yes", "operator": "Servicio Departamental de Deporte", "changing_table": "no"}}, {"type": "Feature", "id": 5679774761, "geometry": {"type": "Point", "coordinates": [-66.1613508, -17.4009111]}, "properties": {"id": 5679774761, "type": "toilets", "category": "toilets", "subcategory": "toilets", "osmType": "node", "amenity": "toilets", "access": "customers", "wheelchair": "yes", "changing_table": "no"}}, {"type": "Feature", "id": 5679774762, "geometry": {"type": "Point", "coordinates": [-66.1606623, -17.401445]}, "properties": {"id": 5679774762, "type": "toilets", "category": "toilets", "subcategory": "toilets", "osmType": "node", "amenity": "toilets", "fee": "yes", "access": "customers", "wheelchair": "yes", "operator": "Servicio Departamental de Deporte", "changing_table": "no"}}, {"type": "Feature", "id": 6193564631, "geometry": {"type": "Point", "coordinates": [-66.1750961, -17.3998445]}, "properties": {"id": 6193564631, "type": "toilets", "category": "toilets", "subcategory": "toilets", "osmType": "node", "amenity": "toilets"}}, {"type": "Feature", "id": 6193564632, "geometry": {"type": "Point", "coordinates": [-66.1750716, -17.3998637]}, "properties": {"id": 6193564632, "type": "toilets", "category": "toilets", "subcategory": "toilets", "osmType": "node", "amenity": "toilets"}}, {"type": "Feature", "id": 6432842834, "geometry": {"type": "Point", "coordinates": [-66.145289, -17.393232]}, "properties": {"id": 6432842834, "type": "toilets", "category": "toilets", "subcategory": "toilets", "osmType": "node", "amenity": "toilets", "fee": "yes", "changing_table": "no"}}, {"type": "Feature", "id": 6432842835, "geometry": {"type": "Point", "coordinates": [-66.1452665, -17.3933485]}, "properties": {"id": 6432842835, "type": "toilets", "category": "toilets", "subcategory": "toilets", "osmType": "node", "amenity": "toilets", "fee": "yes", "changing_table": "no"}}, {"type": "Feature", "id": 6433284811, "geometry": {"type": "Point", "coordinates": [-66.1465398, -17.3949361]}, "properties": {"id": 6433284811, "type": "toilets", "category": "toilets", "subcategory": "toilets", "osmType": "node", "amenity": "toilets", "fee": "yes"}}, {"type": "Feature", "id": 6497828282, "geometry": {"type": "Point", "coordinates": [-66.1499297, -17.400173]}, "properties": {"id": 6497828282, "type": "toilets", "category": "toilets", "subcategory": "toilets", "osmType": "node", "amenity": "toilets", "name": "Baño"}}, {"type": "Feature", "id": 6803026386, "geometry": {"type": "Point", "coordinates": [-66.1533723, -17.3974677]}, "properties": {"id": 6803026386, "type": "toilets", "category": "toilets", "subcategory": "toilets", "osmType": "node", "amenity": "toilets", "fee": "yes"}}, {"type": "Feature", "id": 8624658432, "geometry": {"type": "Point", "coordinates": [-66.1345779, -17.38485]}, "properties": {"id": 8624658432, "type": "toilets", "category": "toilets", "subcategory": "toilets", "osmType": "node", "amenity": "toilets", "fee": "yes", "wheelchair": "no", "changing_table": "no"}}, {"type": "Feature", "id": 8624658491, "geometry": {"type": "Point", "coordinates": [-66.1349855, -17.3845107]}, "properties": {"id": 8624658491, "type": "toilets", "category": "toilets", "subcategory": "toilets", "osmType": "node", "amenity": "toilets", "fee": "yes", "access": "customers", "wheelchair": "no", "changing_table": "no"}}, {"type": "Feature", "id": 8628480140, "geometry": {"type": "Point", "coordinates": [-66.1444572, -17.3934501]}, "properties": {"id": 8628480140, "type": "toilets", "category": "toilets", "subcategory": "toilets", "osmType": "node", "amenity": "toilets", "fee": "yes", "changing_table": "no"}}, {"type": "Feature", "id": 8628480141, "geometry": {"type": "Point", "coordinates": [-66.1444382, -17.3935668]}, "properties": {"id": 8628480141, "type": "toilets", "category": "toilets", "subcategory": "toilets", "osmType": "node", "amenity": "toilets", "fee": "yes", "changing_table": "no"}}, {"type": "Feature", "id": 8661058466, "geometry": {"type": "Point", "coordinates": [-66.1450265, -17.3938045]}, "properties": {"id": 8661058466, "type": "toilets", "category": "toilets", "subcategory": "toilets", "osmType": "node", "amenity": "toilets", "fee": "yes", "changing_table": "no"}}, {"type": "Feature", "id": 8661058467, "geometry": {"type": "Point", "coordinates": [-66.1448927, -17.3937849]}, "properties": {"id": 8661058467, "type": "toilets", "category": "toilets", "subcategory": "toilets", "osmType": "node", "amenity": "toilets", "fee": "yes", "changing_table": "no"}}, {"type": "Feature", "id": 8695610500, "geometry": {"type": "Point", "coordinates": [-66.1353913, -17.37594]}, "properties": {"id": 8695610500, "type": "toilets", "category": "toilets", "subcategory": "toilets", "osmType": "node", "amenity": "toilets", "fee": "no"}}, {"type": "Feature", "id": 9400884731, "geometry": {"type": "Point", "coordinates": [-66.1475107, -17.3917812]}, "properties": {"id": 9400884731, "type": "toilets", "category": "toilets", "subcategory": "toilets", "osmType": "node", "amenity": "toilets", "fee": "yes", "access": "yes", "wheelchair": "no", "changing_table": "no"}}, {"type": "Feature", "id": 9653012745, "geometry": {"type": "Point", "coordinates": [-66.1572029, -17.4096178]}, "properties": {"id": 9653012745, "type": "toilets", "category": "toilets", "subcategory": "toilets", "osmType": "node", "amenity": "toilets", "access": "yes", "wheelchair": "yes", "changing_table": "no"}}, {"type": "Feature", "id": 9863185752, "geometry": {"type": "Point", "coordinates": [-66.1517709, -17.3931427]}, "properties": {"id": 9863185752, "type": "toilets", "category": "toilets", "subcategory": "toilets", "osmType": "node", "amenity": "toilets", "fee": "yes", "access": "yes", "wheelchair": "no", "changing_table": "no", "name": "Baño Público"}}, {"type": "Feature", "id": 9891622117, "geometry": {"type": "Point", "coordinates": [-66.1509274, -17.4122367]}, "properties": {"id": 9891622117, "type": "toilets", "category": "toilets", "subcategory": "toilets", "osmType": "node", "amenity": "toilets"}}, {"type": "Feature", "id": 9905231756, "geometry": {"type": "Point", "coordinates": [-66.1550995, -17.3953629]}, "properties": {"id": 9905231756, "type": "toilets", "category": "toilets", "subcategory": "toilets", "osmType": "node", "amenity": "toilets", "fee": "yes", "access": "yes", "wheelchair": "limited", "changing_table": "no"}}, {"type": "Feature", "id": 10227715214, "geometry": {"type": "Point", "coordinates": [-66.1484192, -17.3915798]}, "properties": {"id": 10227715214, "type": "toilets", "category": "toilets", "subcategory": "toilets", "osmType": "node", "amenity": "toilets", "fee": "no", "access": "customers", "wheelchair": "yes", "operator": "Banco Unión", "toilets:disposal": "flush", "changing_table": "no"}}, {"type": "Feature", "id": 10261771885, "geometry": {"type": "Point", "coordinates": [-66.1418304, -17.3885126]}, "properties": {"id": 10261771885, "type": "toilets", "category": "toilets", "subcategory": "toilets", "osmType": "node", "amenity": "toilets", "fee": "no", "access": "customers", "wheelchair": "limited", "operator": "Empresa Municipal de Áreas Verdes y Recreación Alternativa", "changing_table": "no"}}, {"type": "Feature", "id": 10261771886, "geometry": {"type": "Point", "coordinates": [-66.141836, -17.3885374]}, "properties": {"id": 10261771886, "type": "toilets", "category": "toilets", "subcategory": "toilets", "osmType": "node", "amenity": "toilets", "fee": "no", "access": "customers", "wheelchair": "limited", "operator": "Empresa Municipal de Áreas Verdes y Recreación Alternativa", "changing_table": "no"}}, {"type": "Feature", "id": 10261775414, "geometry": {"type": "Point", "coordinates": [-66.1355961, -17.3849916]}, "properties": {"id": 10261775414, "type": "toilets", "category": "toilets", "subcategory": "toilets", "osmType": "node", "amenity": "toilets", "fee": "no", "access": "customers", "wheelchair": "limited", "operator": "Empresa Municipal de Áreas Verdes y Recreación Alternativa", "changing_table": "no"}}, {"type": "Feature", "id": 10261775415, "geometry": {"type": "Point", "coordinates": [-66.1356005, -17.3850178]}, "properties": {"id": 10261775415, "type": "toilets", "category": "toilets", "subcategory": "toilets", "osmType": "node", "amenity": "toilets", "fee": "no", "access": "customers", "wheelchair": "limited", "operator": "Empresa Municipal de Áreas Verdes y Recreación Alternativa", "changing_table": "no"}}, {"type": "Feature", "id": 10568995986, "geometry": {"type": "Point", "coordinates": [-66.1863893, -17.3978708]}, "properties": {"id": 10568995986, "type": "toilets", "category": "toilets", "subcategory": "toilets", "osmType": "node", "amenity": "toilets", "fee": "yes", "access": "yes", "wheelchair": "yes", "changing_table": "no"}}, {"type": "Feature", "id": 10568995987, "geometry": {"type": "Point", "coordinates": [-66.1863571, -17.3979092]}, "properties": {"id": 10568995987, "type": "toilets", "category": "toilets", "subcategory": "toilets", "osmType": "node", "amenity": "toilets", "fee": "yes", "access": "yes", "wheelchair": "yes", "changing_table": "no"}}, {"type": "Feature", "id": 10711419866, "geometry": {"type": "Point", "coordinates": [-66.1792444, -17.4139285]}, "properties": {"id": 10711419866, "type": "toilets", "category": "toilets", "subcategory": "toilets", "osmType": "node", "amenity": "toilets", "fee": "no", "access": "yes", "wheelchair": "yes", "toilets:disposal": "flush", "changing_table": "no"}}, {"type": "Feature", "id": 11093024867, "geometry": {"type": "Point", "coordinates": [-66.1123722, -17.3726571]}, "properties": {"id": 11093024867, "type": "toilets", "category": "toilets", "subcategory": "toilets", "osmType": "node", "amenity": "toilets", "access": "customers", "wheelchair": "limited", "changing_table": "no"}}, {"type": "Feature", "id": 11191929070, "geometry": {"type": "Point", "coordinates": [-66.1703158, -17.4038431]}, "properties": {"id": 11191929070, "type": "toilets", "category": "toilets", "subcategory": "toilets", "osmType": "node", "amenity": "toilets", "fee": "no", "access": "customers", "wheelchair": "yes", "toilets:disposal": "flush", "changing_table": "no"}}, {"type": "Feature", "id": 11407724224, "geometry": {"type": "Point", "coordinates": [-66.1260902, -17.4330601]}, "properties": {"id": 11407724224, "type": "toilets", "category": "toilets", "subcategory": "toilets", "osmType": "node", "amenity": "toilets", "access": "customers", "wheelchair": "no", "changing_table": "no"}}, {"type": "Feature", "id": 11827808104, "geometry": {"type": "Point", "coordinates": [-66.1309093, -17.4210368]}, "properties": {"id": 11827808104, "type": "toilets", "category": "toilets", "subcategory": "toilets", "osmType": "node", "amenity": "toilets", "fee": "yes", "access": "yes", "wheelchair": "limited", "toilets:disposal": "flush", "changing_table": "no"}}, {"type": "Feature", "id": 11827808105, "geometry": {"type": "Point", "coordinates": [-66.1301337, -17.4209675]}, "properties": {"id": 11827808105, "type": "toilets", "category": "toilets", "subcategory": "toilets", "osmType": "node", "amenity": "toilets", "fee": "no", "access": "yes", "wheelchair": "limited", "toilets:disposal": "flush", "changing_table": "no"}}, {"type": "Feature", "id": 11846280048, "geometry": {"type": "Point", "coordinates": [-66.1284534, -17.4203331]}, "properties": {"id": 11846280048, "type": "toilets", "category": "toilets", "subcategory": "toilets", "osmType": "node", "amenity": "toilets", "fee": "no", "access": "yes", "wheelchair": "limited", "toilets:disposal": "flush", "changing_table": "no"}}, {"type": "Feature", "id": 11846280049, "geometry": {"type": "Point", "coordinates": [-66.1279028, -17.4200128]}, "properties": {"id": 11846280049, "type": "toilets", "category": "toilets", "subcategory": "toilets", "osmType": "node", "amenity": "toilets", "fee": "no", "access": "yes", "wheelchair": "limited", "toilets:disposal": "flush", "changing_table": "no"}}, {"type": "Feature", "id": 11849245143, "geometry": {"type": "Point", "coordinates": [-66.1309327, -17.4197548]}, "properties": {"id": 11849245143, "type": "toilets", "category": "toilets", "subcategory": "toilets", "osmType": "node", "amenity": "toilets", "fee": "yes", "access": "yes", "wheelchair": "yes", "toilets:disposal": "flush", "changing_table": "no"}}, {"type": "Feature", "id": 11849245144, "geometry": {"type": "Point", "coordinates": [-66.1301377, -17.4190011]}, "properties": {"id": 11849245144, "type": "toilets", "category": "toilets", "subcategory": "toilets", "osmType": "node", "amenity": "toilets", "fee": "yes", "access": "yes", "wheelchair": "yes", "toilets:disposal": "flush", "changing_table": "no"}}, {"type": "Feature", "id": 11849245145, "geometry": {"type": "Point", "coordinates": [-66.1299738, -17.4195252]}, "properties": {"id": 11849245145, "type": "toilets", "category": "toilets", "subcategory": "toilets", "osmType": "node", "amenity": "toilets", "fee": "yes", "access": "yes", "wheelchair": "yes", "toilets:disposal": "flush", "changing_table": "no"}}, {"type": "Feature", "id": 11885983250, "geometry": {"type": "Point", "coordinates": [-66.1547212, -17.3880158]}, "properties": {"id": 11885983250, "type": "toilets", "category": "toilets", "subcategory": "toilets", "osmType": "node", "amenity": "toilets", "fee": "no", "access": "yes", "wheelchair": "yes", "toilets:disposal": "flush", "name": "Baño Hombres"}}, {"type": "Feature", "id": 11886035979, "geometry": {"type": "Point", "coordinates": [-66.1547274, -17.3879864]}, "properties": {"id": 11886035979, "type": "toilets", "category": "toilets", "subcategory": "toilets", "osmType": "node", "amenity": "toilets", "fee": "no", "access": "yes", "wheelchair": "yes", "toilets:disposal": "flush", "name": "Baño Mujeres"}}, {"type": "Feature", "id": 13021862769, "geometry": {"type": "Point", "coordinates": [-66.2254758, -17.3956082]}, "properties": {"id": 13021862769, "type": "toilets", "category": "toilets", "subcategory": "toilets", "osmType": "node", "amenity": "toilets", "fee": "no", "access": "customers", "wheelchair": "yes", "toilets:disposal": "flush", "changing_table": "no"}}, {"type": "Feature", "id": 13391782356, "geometry": {"type": "Point", "coordinates": [-66.1398116, -17.4203941]}, "properties": {"id": 13391782356, "type": "toilets", "category": "toilets", "subcategory": "toilets", "osmType": "node", "amenity": "toilets", "fee": "yes", "access": "yes", "wheelchair": "no", "toilets:disposal": "flush", "changing_table": "no"}}, {"type": "Feature", "id": 13391782359, "geometry": {"type": "Point", "coordinates": [-66.1402487, -17.420737]}, "properties": {"id": 13391782359, "type": "toilets", "category": "toilets", "subcategory": "toilets", "osmType": "node", "amenity": "toilets", "fee": "yes", "access": "yes", "wheelchair": "no", "toilets:disposal": "flush", "changing_table": "no"}}, {"type": "Feature", "id": 13905493284, "geometry": {"type": "Point", "coordinates": [-66.1509369, -17.3802431]}, "properties": {"id": 13905493284, "type": "toilets", "category": "toilets", "subcategory": "toilets", "osmType": "node", "amenity": "toilets", "fee": "no", "access": "customers", "wheelchair": "designated", "operator": "MegaCenter", "toilets:disposal": "flush", "changing_table": "no"}}, {"type": "Feature", "id": 13914782761, "geometry": {"type": "Point", "coordinates": [-66.1884226, -17.3969882]}, "properties": {"id": 13914782761, "type": "toilets", "category": "toilets", "subcategory": "toilets", "osmType": "node", "amenity": "toilets", "fee": "no", "access": "customers", "wheelchair": "no", "toilets:disposal": "flush", "changing_table": "no"}}, {"type": "Feature", "id": 13918209443, "geometry": {"type": "Point", "coordinates": [-66.1542826, -17.4039923]}, "properties": {"id": 13918209443, "type": "toilets", "category": "toilets", "subcategory": "toilets", "osmType": "node", "amenity": "toilets", "fee": "no", "access": "yes", "wheelchair": "limited", "operator": "Mi Tren", "toilets:disposal": "flush", "changing_table": "no", "name": "Baño Público"}}, {"type": "Feature", "id": 192581508, "geometry": {"type": "Point", "coordinates": [-66.1287954, -17.4209017]}, "properties": {"id": 192581508, "type": "toilets", "category": "toilets", "subcategory": "toilets", "osmType": "way", "amenity": "toilets", "fee": "yes", "access": "yes", "wheelchair": "limited", "toilets:disposal": "flush", "changing_table": "no"}}, {"type": "Feature", "id": 193053605, "geometry": {"type": "Point", "coordinates": [-66.1310061, -17.4204656]}, "properties": {"id": 193053605, "type": "toilets", "category": "toilets", "subcategory": "toilets", "osmType": "way", "amenity": "toilets", "fee": "no", "access": "yes", "wheelchair": "yes", "toilets:disposal": "flush", "changing_table": "no"}}, {"type": "Feature", "id": 193053631, "geometry": {"type": "Point", "coordinates": [-66.1310628, -17.4193054]}, "properties": {"id": 193053631, "type": "toilets", "category": "toilets", "subcategory": "toilets", "osmType": "way", "amenity": "toilets", "fee": "yes", "access": "yes", "wheelchair": "yes", "toilets:disposal": "flush", "changing_table": "no"}}, {"type": "Feature", "id": 193053641, "geometry": {"type": "Point", "coordinates": [-66.1286975, -17.4192707]}, "properties": {"id": 193053641, "type": "toilets", "category": "toilets", "subcategory": "toilets", "osmType": "way", "amenity": "toilets", "fee": "yes", "access": "yes", "wheelchair": "yes", "toilets:disposal": "flush", "changing_table": "no"}}, {"type": "Feature", "id": 193053642, "geometry": {"type": "Point", "coordinates": [-66.1298984, -17.4209673]}, "properties": {"id": 193053642, "type": "toilets", "category": "toilets", "subcategory": "toilets", "osmType": "way", "amenity": "toilets", "fee": "yes", "access": "yes", "wheelchair": "limited", "toilets:disposal": "flush", "changing_table": "no"}}, {"type": "Feature", "id": 197318104, "geometry": {"type": "Point", "coordinates": [-66.1470111, -17.394555]}, "properties": {"id": 197318104, "type": "toilets", "category": "toilets", "subcategory": "toilets", "osmType": "way", "amenity": "toilets", "fee": "yes"}}, {"type": "Feature", "id": 202716535, "geometry": {"type": "Point", "coordinates": [-66.1416952, -17.3711757]}, "properties": {"id": 202716535, "type": "toilets", "category": "toilets", "subcategory": "toilets", "osmType": "way", "amenity": "toilets"}}, {"type": "Feature", "id": 222851376, "geometry": {"type": "Point", "coordinates": [-66.16141, -17.3888003]}, "properties": {"id": 222851376, "type": "toilets", "category": "toilets", "subcategory": "toilets", "osmType": "way", "amenity": "toilets", "access": "private"}}, {"type": "Feature", "id": 233811002, "geometry": {"type": "Point", "coordinates": [-66.1663516, -17.4261749]}, "properties": {"id": 233811002, "type": "toilets", "category": "toilets", "subcategory": "toilets", "osmType": "way", "amenity": "toilets", "access": "private"}}, {"type": "Feature", "id": 361424823, "geometry": {"type": "Point", "coordinates": [-66.169327, -17.3972501]}, "properties": {"id": 361424823, "type": "toilets", "category": "toilets", "subcategory": "toilets", "osmType": "way", "amenity": "toilets", "access": "customers", "changing_table": "no"}}, {"type": "Feature", "id": 481487858, "geometry": {"type": "Point", "coordinates": [-66.1560377, -17.4479616]}, "properties": {"id": 481487858, "type": "toilets", "category": "toilets", "subcategory": "toilets", "osmType": "way", "amenity": "toilets"}}, {"type": "Feature", "id": 563935084, "geometry": {"type": "Point", "coordinates": [-66.1845249, -17.3493152]}, "properties": {"id": 563935084, "type": "toilets", "category": "toilets", "subcategory": "toilets", "osmType": "way", "amenity": "toilets", "access": "customers", "wheelchair": "yes", "changing_table": "no"}}, {"type": "Feature", "id": 563935218, "geometry": {"type": "Point", "coordinates": [-66.1878289, -17.3484952]}, "properties": {"id": 563935218, "type": "toilets", "category": "toilets", "subcategory": "toilets", "osmType": "way", "amenity": "toilets", "access": "customers", "changing_table": "no"}}, {"type": "Feature", "id": 936949143, "geometry": {"type": "Point", "coordinates": [-66.147314, -17.3931274]}, "properties": {"id": 936949143, "type": "toilets", "category": "toilets", "subcategory": "toilets", "osmType": "way", "amenity": "toilets", "fee": "yes", "wheelchair": "limited", "changing_table": "no"}}, {"type": "Feature", "id": 936949144, "geometry": {"type": "Point", "coordinates": [-66.1472622, -17.393118]}, "properties": {"id": 936949144, "type": "toilets", "category": "toilets", "subcategory": "toilets", "osmType": "way", "amenity": "toilets", "fee": "yes", "wheelchair": "limited", "changing_table": "no"}}, {"type": "Feature", "id": 938277579, "geometry": {"type": "Point", "coordinates": [-66.129429, -17.4210114]}, "properties": {"id": 938277579, "type": "toilets", "category": "toilets", "subcategory": "toilets", "osmType": "way", "amenity": "toilets", "fee": "yes", "access": "yes", "wheelchair": "limited", "toilets:disposal": "flush", "changing_table": "no"}}, {"type": "Feature", "id": 978019594, "geometry": {"type": "Point", "coordinates": [-66.1833601, -17.3480177]}, "properties": {"id": 978019594, "type": "toilets", "category": "toilets", "subcategory": "toilets", "osmType": "way", "amenity": "toilets", "changing_table": "no"}}, {"type": "Feature", "id": 1042135369, "geometry": {"type": "Point", "coordinates": [-66.160702, -17.3999254]}, "properties": {"id": 1042135369, "type": "toilets", "category": "toilets", "subcategory": "toilets", "osmType": "way", "amenity": "toilets", "access": "yes", "wheelchair": "yes", "changing_table": "no"}}, {"type": "Feature", "id": 1275937143, "geometry": {"type": "Point", "coordinates": [-66.1283811, -17.4193717]}, "properties": {"id": 1275937143, "type": "toilets", "category": "toilets", "subcategory": "toilets", "osmType": "way", "amenity": "toilets", "fee": "no", "access": "yes", "wheelchair": "limited", "toilets:disposal": "flush", "changing_table": "no"}}, {"type": "Feature", "id": 1275937182, "geometry": {"type": "Point", "coordinates": [-66.1292753, -17.4192838]}, "properties": {"id": 1275937182, "type": "toilets", "category": "toilets", "subcategory": "toilets", "osmType": "way", "amenity": "toilets", "fee": "yes", "access": "yes", "wheelchair": "yes", "toilets:disposal": "flush", "changing_table": "no"}}]}